CCSDS_OMM_VERS = 2.0
CREATION_DATE  = 
ORIGINATOR     = 

OBJECT_NAME    = ALOS-2
OBJECT_ID      = 2014-029A
CENTER_NAME    = EARTH
REF_FRAME      = TEME
TIME_SYSTEM    = UTC
MEAN_ELEMENT_THEORY = SGP/SGP4

EPOCH          = 2026-03-28T14:07:07.317696
MEAN_MOTION    = 14.79446030
ECCENTRICITY   = .00019284
INCLINATION    = 97.9186
RA_OF_ASC_NODE = 185.9108
ARG_OF_PERICENTER = 102.7367
MEAN_ANOMALY   = 257.4060

EPHEMERIS_TYPE = 0
CLASSIFICATION_TYPE = U
NORAD_CAT_ID   = 39766
ELEMENT_SET_NO = 999
REV_AT_EPOCH   = 63966
BSTAR          = .26886408E-3
MEAN_MOTION_DOT = .1956E-4
MEAN_MOTION_DDOT = 0

CCSDS_OMM_VERS = 2.0
CREATION_DATE  = 
ORIGINATOR     = 

OBJECT_NAME    = YAOGAN-29
OBJECT_ID      = 2015-069A
CENTER_NAME    = EARTH
REF_FRAME      = TEME
TIME_SYSTEM    = UTC
MEAN_ELEMENT_THEORY = SGP/SGP4

EPOCH          = 2026-03-28T14:51:28.323648
MEAN_MOTION    = 14.83013570
ECCENTRICITY   = .00005091
INCLINATION    = 98.0123
RA_OF_ASC_NODE = 116.0975
ARG_OF_PERICENTER = 0.4025
MEAN_ANOMALY   = 359.7188

EPHEMERIS_TYPE = 0
CLASSIFICATION_TYPE = U
NORAD_CAT_ID   = 41038
ELEMENT_SET_NO = 999
REV_AT_EPOCH   = 55868
BSTAR          = .18890434E-4
MEAN_MOTION_DOT = .99E-6
MEAN_MOTION_DDOT = 0

CCSDS_OMM_VERS = 2.0
CREATION_DATE  = 
ORIGINATOR     = 

OBJECT_NAME    = ASTRO-H (HITOMI)
OBJECT_ID      = 2016-012A
CENTER_NAME    = EARTH
REF_FRAME      = TEME
TIME_SYSTEM    = UTC
MEAN_ELEMENT_THEORY = SGP/SGP4

EPOCH          = 2026-03-28T11:20:33.853056
MEAN_MOTION    = 15.10120215
ECCENTRICITY   = .00096276
INCLINATION    = 30.9987
RA_OF_ASC_NODE = 235.3252
ARG_OF_PERICENTER = 160.8591
MEAN_ANOMALY   = 199.2410

EPHEMERIS_TYPE = 0
CLASSIFICATION_TYPE = U
NORAD_CAT_ID   = 41337
ELEMENT_SET_NO = 999
REV_AT_EPOCH   = 55507
BSTAR          = .19733466E-3
MEAN_MOTION_DOT = .3394E-4
MEAN_MOTION_DDOT = 0

CCSDS_OMM_VERS = 2.0
CREATION_DATE  = 
ORIGINATOR     = 

OBJECT_NAME    = HXMT (HUIYAN)
OBJECT_ID      = 2017-034A
CENTER_NAME    = EARTH
REF_FRAME      = TEME
TIME_SYSTEM    = UTC
MEAN_ELEMENT_THEORY = SGP/SGP4

EPOCH          = 2026-03-28T14:26:06.641664
MEAN_MOTION    = 15.17697736
ECCENTRICITY   = .0031927
INCLINATION    = 43.0138
RA_OF_ASC_NODE = 271.5127
ARG_OF_PERICENTER = 351.7520
MEAN_ANOMALY   = 8.2800

EPHEMERIS_TYPE = 0
CLASSIFICATION_TYPE = U
NORAD_CAT_ID   = 42758
ELEMENT_SET_NO = 999
REV_AT_EPOCH   = 48541
BSTAR          = .28805835E-3
MEAN_MOTION_DOT = .575E-4
MEAN_MOTION_DDOT = 0

CCSDS_OMM_VERS = 2.0
CREATION_DATE  = 
ORIGINATOR     = 

OBJECT_NAME    = SAOCOM 1A
OBJECT_ID      = 2018-076A
CENTER_NAME    = EARTH
REF_FRAME      = TEME
TIME_SYSTEM    = UTC
MEAN_ELEMENT_THEORY = SGP/SGP4

EPOCH          = 2026-03-28T14:18:10.454112
MEAN_MOTION    = 14.82158395
ECCENTRICITY   = .00014307
INCLINATION    = 97.8907
RA_OF_ASC_NODE = 275.5017
ARG_OF_PERICENTER = 85.9232
MEAN_ANOMALY   = 274.2145

EPHEMERIS_TYPE = 0
CLASSIFICATION_TYPE = U
NORAD_CAT_ID   = 43641
ELEMENT_SET_NO = 999
REV_AT_EPOCH   = 40416
BSTAR          = .18733888E-4
MEAN_MOTION_DOT = .97E-6
MEAN_MOTION_DDOT = 0

CCSDS_OMM_VERS = 2.0
CREATION_DATE  = 
ORIGINATOR     = 

OBJECT_NAME    = H-2A R/B
OBJECT_ID      = 2018-084L
CENTER_NAME    = EARTH
REF_FRAME      = TEME
TIME_SYSTEM    = UTC
MEAN_ELEMENT_THEORY = SGP/SGP4

EPOCH          = 2026-03-28T13:18:21.955392
MEAN_MOTION    = 15.42134956
ECCENTRICITY   = .00237811
INCLINATION    = 98.8711
RA_OF_ASC_NODE = 308.9843
ARG_OF_PERICENTER = 319.5540
MEAN_ANOMALY   = 40.3934

EPHEMERIS_TYPE = 0
CLASSIFICATION_TYPE = U
NORAD_CAT_ID   = 43682
ELEMENT_SET_NO = 999
REV_AT_EPOCH   = 40868
BSTAR          = .53602278E-3
MEAN_MOTION_DOT = .23113E-3
MEAN_MOTION_DDOT = 0

CCSDS_OMM_VERS = 2.0
CREATION_DATE  = 
ORIGINATOR     = 

OBJECT_NAME    = SAOCOM 1B
OBJECT_ID      = 2020-059A
CENTER_NAME    = EARTH
REF_FRAME      = TEME
TIME_SYSTEM    = UTC
MEAN_ELEMENT_THEORY = SGP/SGP4

EPOCH          = 2026-03-28T13:25:56.320032
MEAN_MOTION    = 14.82157134
ECCENTRICITY   = .00015395
INCLINATION    = 97.8908
RA_OF_ASC_NODE = 274.5639
ARG_OF_PERICENTER = 87.6326
MEAN_ANOMALY   = 272.5063

EPHEMERIS_TYPE = 0
CLASSIFICATION_TYPE = U
NORAD_CAT_ID   = 46265
ELEMENT_SET_NO = 999
REV_AT_EPOCH   = 30154
BSTAR          = .95254415E-4
MEAN_MOTION_DOT = .706E-5
MEAN_MOTION_DDOT = 0

CCSDS_OMM_VERS = 2.0
CREATION_DATE  = 
ORIGINATOR     = 

OBJECT_NAME    = CSS (TIANHE)
OBJECT_ID      = 2021-035A
CENTER_NAME    = EARTH
REF_FRAME      = TEME
TIME_SYSTEM    = UTC
MEAN_ELEMENT_THEORY = SGP/SGP4

EPOCH          = 2026-03-28T09:29:17.689632
MEAN_MOTION    = 15.61580461
ECCENTRICITY   = .00040582
INCLINATION    = 41.4669
RA_OF_ASC_NODE = 94.2614
ARG_OF_PERICENTER = 45.3760
MEAN_ANOMALY   = 314.7410

EPHEMERIS_TYPE = 0
CLASSIFICATION_TYPE = U
NORAD_CAT_ID   = 48274
ELEMENT_SET_NO = 999
REV_AT_EPOCH   = 28053
BSTAR          = .20487581E-3
MEAN_MOTION_DOT = .17812E-3
MEAN_MOTION_DDOT = 0

CCSDS_OMM_VERS = 2.0
CREATION_DATE  = 
ORIGINATOR     = 

OBJECT_NAME    = COSMOS 2550
OBJECT_ID      = 2021-056A
CENTER_NAME    = EARTH
REF_FRAME      = TEME
TIME_SYSTEM    = UTC
MEAN_ELEMENT_THEORY = SGP/SGP4

EPOCH          = 2026-03-28T11:49:31.757952
MEAN_MOTION    = 15.33828274
ECCENTRICITY   = .000844
INCLINATION    = 67.1421
RA_OF_ASC_NODE = 344.0047
ARG_OF_PERICENTER = 269.5686
MEAN_ANOMALY   = 90.4502

EPHEMERIS_TYPE = 0
CLASSIFICATION_TYPE = U
NORAD_CAT_ID   = 48865
ELEMENT_SET_NO = 999
REV_AT_EPOCH   = 26634
BSTAR          = .189685E-6
MEAN_MOTION_DOT = -.186E-5
MEAN_MOTION_DDOT = 0

CCSDS_OMM_VERS = 2.0
CREATION_DATE  = 
ORIGINATOR     = 

OBJECT_NAME    = CZ-2C R/B
OBJECT_ID      = 2022-058K
CENTER_NAME    = EARTH
REF_FRAME      = TEME
TIME_SYSTEM    = UTC
MEAN_ELEMENT_THEORY = SGP/SGP4

EPOCH          = 2026-03-28T14:22:13.926720
MEAN_MOTION    = 15.55613526
ECCENTRICITY   = .00415005
INCLINATION    = 50.1873
RA_OF_ASC_NODE = 220.9188
ARG_OF_PERICENTER = 281.9247
MEAN_ANOMALY   = 77.7073

EPHEMERIS_TYPE = 0
CLASSIFICATION_TYPE = U
NORAD_CAT_ID   = 52794
ELEMENT_SET_NO = 999
REV_AT_EPOCH   = 21307
BSTAR          = .61128373E-3
MEAN_MOTION_DOT = .44205E-3
MEAN_MOTION_DDOT = 0

CCSDS_OMM_VERS = 2.0
CREATION_DATE  = 
ORIGINATOR     = 

OBJECT_NAME    = CZ-2C R/B
OBJECT_ID      = 2022-132E
CENTER_NAME    = EARTH
REF_FRAME      = TEME
TIME_SYSTEM    = UTC
MEAN_ELEMENT_THEORY = SGP/SGP4

EPOCH          = 2026-03-28T13:57:49.395744
MEAN_MOTION    = 15.63619581
ECCENTRICITY   = .00177008
INCLINATION    = 97.2960
RA_OF_ASC_NODE = 91.4974
ARG_OF_PERICENTER = 29.7061
MEAN_ANOMALY   = 330.5199

EPHEMERIS_TYPE = 0
CLASSIFICATION_TYPE = U
NORAD_CAT_ID   = 54039
ELEMENT_SET_NO = 999
REV_AT_EPOCH   = 19332
BSTAR          = .52079174E-3
MEAN_MOTION_DOT = .48831E-3
MEAN_MOTION_DDOT = 0

CCSDS_OMM_VERS = 2.0
CREATION_DATE  = 
ORIGINATOR     = 

OBJECT_NAME    = GSLV R/B
OBJECT_ID      = 2022-138AN
CENTER_NAME    = EARTH
REF_FRAME      = TEME
TIME_SYSTEM    = UTC
MEAN_ELEMENT_THEORY = SGP/SGP4

EPOCH          = 2026-03-28T10:33:01.530720
MEAN_MOTION    = 14.96891410
ECCENTRICITY   = .00240474
INCLINATION    = 87.3863
RA_OF_ASC_NODE = 160.0857
ARG_OF_PERICENTER = 84.9694
MEAN_ANOMALY   = 275.4282

EPHEMERIS_TYPE = 0
CLASSIFICATION_TYPE = U
NORAD_CAT_ID   = 54149
ELEMENT_SET_NO = 999
REV_AT_EPOCH   = 18673
BSTAR          = .20975123E-3
MEAN_MOTION_DOT = .2448E-4
MEAN_MOTION_DDOT = 0

